*******************************************************************************
 Revised: Jun 17, 2016           Ganymede / (Jupiter)                       503

 SATELLITE PHYSICAL PROPERTIES:
  Radius (km)             = 2634   +- 10     Density (g cm^-3)  =  1.94 +- 0.02
  Mass (10^20 kg )        = 1482   +- 1      Geometric Albedo   =  0.4

 SATELLITE ORBITAL DATA:
  Semi-major axis, a (km) = 1070.0428 (10^3) Orbital period     = 7.154553 d
  Eccentricity, e         = 0.0006           Rotational period  = Synchronous
  Inclination, i  (deg)   = 0.186
*******************************************************************************
 
 
*******************************************************************************
Ephemeris / WWW_USER Fri Jun 19 18:16:18 2020 Pasadena, USA      / Horizons
*******************************************************************************
Target body name: Ganymede (503)                  {source: jup310}
Center body name: Solar System Barycenter (0)     {source: DE431mx}
Center-site name: BODY CENTER
*******************************************************************************
Start time      : A.D. 1969-Jun-28 00:00:00.0000 TDB
Stop  time      : A.D. 2071-May-04 00:00:00.0000 TDB
Step-size       : 7200 minutes
*******************************************************************************
Center geodetic : 0.00000000,0.00000000,0.0000000 {E-lon(deg),Lat(deg),Alt(km)}
Center cylindric: 0.00000000,0.00000000,0.0000000 {E-lon(deg),Dxy(km),Dz(km)}
Center radii    : (undefined)                                                  
Output units    : AU-D
Output type     : GEOMETRIC cartesian states
Output format   : 2 (position and velocity)
Reference frame : Ecliptic of J2000.0
*******************************************************************************
            JDTDB,            Calendar Date (TDB),        delta-T,                      X,                      Y,                      Z,                     VX,                     VY,                     VZ,
******************************************************************************************************************************************************************************************************************
$$SOE
2444720.500000000, A.D. 1981-Apr-26 00:00:00.0000,      51.185525, -5.387813832070070E+00, -7.696887298929888E-01,  1.235422587024893E-01,  7.246717174106738E-03, -7.394319194776237E-03,  6.719865214518424E-05,
2444725.500000000, A.D. 1981-May-01 00:00:00.0000,      51.185464, -5.389231609088740E+00, -7.955720005484512E-01,  1.238378207996110E-01, -1.228416725137462E-03, -1.297777896247234E-02, -2.172936799667386E-04,
2444730.500000000, A.D. 1981-May-06 00:00:00.0000,      51.185394, -5.372816516897021E+00, -8.281451873234529E-01,  1.240917912156370E-01, -3.794216016393764E-03, -3.128505825173729E-03,  8.739018492023876E-05,
2444735.500000000, A.D. 1981-May-11 00:00:00.0000,      51.185314, -5.368078169943901E+00, -8.752325156150228E-01,  1.237149575301248E-01,  6.425763723648021E-03, -3.742745414920954E-03,  1.765092409778508E-04,
2444740.500000000, A.D. 1981-May-16 00:00:00.0000,      51.185222, -5.373155915297999E+00, -9.063670183623067E-01,  1.237630877915918E-01,  2.667002891110829E-03, -1.318974650247095E-02, -1.876613520055423E-04,
2444745.500000000, A.D. 1981-May-21 00:00:00.0000,      51.185121, -5.359705857558859E+00, -9.329583423995703E-01,  1.241587718750242E-01, -5.049621752494171E-03, -6.580849353836469E-03, -4.949441447000482E-05,
2444750.500000000, A.D. 1981-May-26 00:00:00.0000,      51.185012, -5.347504082648574E+00, -9.782612700360321E-01,  1.238950037224998E-01,  3.708983776888484E-03, -1.290121433479484E-03,  2.242573742899362E-04,
2444755.500000000, A.D. 1981-May-31 00:00:00.0000,      51.184898, -5.352397184174734E+00, -1.016176256620035E+00,  1.236853332143985E-01,  6.024779060543011E-03, -1.121785598476370E-02, -8.980643592867208E-05,
2444760.500000000, A.D. 1981-Jun-05 00:00:00.0000,      51.184778, -5.344596995429439E+00, -1.039925820691312E+00,  1.240862052990372E-01, -4.068798902039492E-03, -1.021073755913524E-02, -1.680481300734129E-04,
2444765.500000000, A.D. 1981-Jun-10 00:00:00.0000,      51.184652, -5.327080943429480E+00, -1.079887135598640E+00,  1.240324081981762E-01,  1.177667797994410E-04, -8.979675339948353E-04,  1.923383165545534E-04,
2444770.500000000, A.D. 1981-Jun-15 00:00:00.0000,      51.184519, -5.327747726778910E+00, -1.123652119345767E+00,  1.236402889463659E-01,  7.702519736105992E-03, -7.760492103650964E-03,  4.006281935864891E-05,
2444775.500000000, A.D. 1981-Jun-20 00:00:00.0000,      51.184382, -5.326002374382199E+00, -1.148663685420812E+00,  1.239020192533925E-01, -1.155149874315625E-03, -1.270925731815983E-02, -2.271143506879775E-04,
2444780.500000000, A.D. 1981-Jun-25 00:00:00.0000,      51.184244, -5.306960642667504E+00, -1.181594259565274E+00,  1.240737138872008E-01, -3.008810668512602E-03, -2.699928155625224E-03,  9.084607836956122E-05,
2444785.500000000, A.D. 1981-Jun-30 00:00:00.0000,      51.184105, -5.300608919745616E+00, -1.228131617808380E+00,  1.236338208726829E-01,  7.143507184328234E-03, -4.035751908134622E-03,  1.544760934285867E-04,
2444790.500000000, A.D. 1981-Jul-05 00:00:00.0000,      52.183966, -5.302910636056271E+00, -1.258014483423938E+00,  1.236552498101103E-01,  2.709658027070618E-03, -1.318248316398903E-02, -2.070366271013419E-04,
2444795.500000000, A.D. 1981-Jul-10 00:00:00.0000,      52.183826, -5.286411277297741E+00, -1.284668272975231E+00,  1.239818998539212E-01, -4.509111070210309E-03, -6.032099190470178E-03, -4.496306398185530E-05,
2444800.500000000, A.D. 1981-Jul-15 00:00:00.0000,      52.183687, -5.272503978276116E+00, -1.329856826063970E+00,  1.236397315327453E-01,  4.603133261671268E-03, -1.373207866780413E-03,  2.110424268031845E-04,
2444805.500000000, A.D. 1981-Jul-20 00:00:00.0000,      52.183548, -5.275128411219713E+00, -1.366417745495315E+00,  1.233997329350406E-01,  6.198790620483429E-03, -1.143948753077526E-02, -1.158292303975355E-04,
2444810.500000000, A.D. 1981-Jul-25 00:00:00.0000,      52.183414, -5.264075859035635E+00, -1.389729121179572E+00,  1.237494181303420E-01, -3.795463667484047E-03, -9.699484348109197E-03, -1.680524888800438E-04,
2444815.500000000, A.D. 1981-Jul-30 00:00:00.0000,      52.183286, -5.244506646661304E+00, -1.429869927281221E+00,  1.236095814755738E-01,  1.043741721250069E-03, -7.066679496508373E-04,  1.885420938560947E-04,
2444820.500000000, A.D. 1981-Aug-04 00:00:00.0000,      52.183163, -5.243353210271944E+00, -1.472470483411305E+00,  1.231742453979014E-01,  8.119381026258629E-03, -8.090044303791667E-03,  1.275596009525277E-05,
2444825.500000000, A.D. 1981-Aug-09 00:00:00.0000,      52.183045, -5.238451373195819E+00, -1.496501688130922E+00,  1.234007775953822E-01, -1.075746868173396E-03, -1.237976716490621E-02, -2.357470195367374E-04,
2444830.500000000, A.D. 1981-Aug-14 00:00:00.0000,      52.182932, -5.216877745978109E+00, -1.529641919200916E+00,  1.234892636201661E-01, -2.206329580174514E-03, -2.261690212755939E-03,  9.382337928968953E-05,
2444835.500000000, A.D. 1981-Aug-19 00:00:00.0000,      52.182827, -5.208941312713359E+00, -1.575409620524204E+00,  1.229886629962123E-01,  7.824348257095244E-03, -4.311595144465864E-03,  1.316319912388215E-04,
2444840.500000000, A.D. 1981-Aug-24 00:00:00.0000,      52.182731, -5.208451419554271E+00, -1.603908420714227E+00,  1.229832351223856E-01,  2.739413052497705E-03, -1.311265318168105E-02, -2.253581573507386E-04,
2444845.500000000, A.D. 1981-Aug-29 00:00:00.0000,      52.182646, -5.188983054423541E+00, -1.630507858443178E+00,  1.232391094483990E-01, -3.944120393190244E-03, -5.455542923567572E-03, -4.016281119528469E-05,
2444850.500000000, A.D. 1981-Sep-03 00:00:00.0000,      52.182570, -5.173438212282369E+00, -1.675369567831259E+00,  1.228203170196123E-01,  5.473788690864760E-03, -1.453949844181439E-03,  1.966735586832570E-04,
2444855.500000000, A.D. 1981-Sep-08 00:00:00.0000,      52.182504, -5.173774835203937E+00, -1.710409682989776E+00,  1.225512067239173E-01,  6.342628405199284E-03, -1.160587415910996E-02, -1.412326389929697E-04,
2444860.500000000, A.D. 1981-Sep-13 00:00:00.0000,      52.182447, -5.159521702709632E+00, -1.733182140565272E+00,  1.228478508004995E-01, -3.502182193518948E-03, -9.141976247452816E-03, -1.671638859251100E-04,
2444865.500000000, A.D. 1981-Sep-18 00:00:00.0000,      52.182402, -5.137995559822452E+00, -1.773316895051916E+00,  1.226226030476787E-01,  1.966127040403797E-03, -5.165427147618195E-04,  1.837256055295681E-04,
2444870.500000000, A.D. 1981-Sep-23 00:00:00.0000,      52.182369, -5.135021156724068E+00, -1.814553645548623E+00,  1.221463169832536E-01,  8.495284270833158E-03, -8.380916597450752E-03, -1.461396011786294E-05,
2444875.500000000, A.D. 1981-Sep-28 00:00:00.0000,      52.182349, -5.126982639500430E+00, -1.837500898732791E+00,  1.223364057760108E-01, -9.900343382204507E-04, -1.199182030798024E-02, -2.431961967944467E-04,
2444880.500000000, A.D. 1981-Oct-03 00:00:00.0000,      52.182342, -5.102981660912894E+00, -1.870700760500423E+00,  1.223410974521516E-01, -1.390260635320120E-03, -1.815339142888145E-03,  9.633364107602226E-05,
2444885.500000000, A.D. 1981-Oct-08 00:00:00.0000,      52.182346, -5.093495197629389E+00, -1.915482203752765E+00,  1.217823591825056E-01,  8.465258389617336E-03, -4.569250658288965E-03,  1.080533813388785E-04,
2444890.500000000, A.D. 1981-Oct-13 00:00:00.0000,      52.182361, -5.090209456384206E+00, -1.942471288959642E+00,  1.217500080525977E-01,  2.757069652617223E-03, -1.297952515632306E-02, -2.425292725692113E-04,
2444895.500000000, A.D. 1981-Oct-18 00:00:00.0000,      52.182388, -5.067864412982440E+00, -1.968898437729432E+00,  1.219336878167505E-01, -3.357505281441995E-03, -4.854059583265934E-03, -3.512527976605433E-05,
